ORBCOMM FM103           
1 40091U 14040F   25036.95739508  .00001567  00000+0  37597-3 0  9997
2 40091  47.0052 277.3958 0001652  33.2208 326.8781 14.57778619544954
ORBCOMM FM114           
1 41179U 15081A   25036.84648896  .00001637  00000+0  39085-3 0  9990
2 41179  47.0014 187.0471 0001645 132.6833 227.4191 14.57833393485302
ORBCOMM FM119           
1 41180U 15081B   25036.62212757  .00001695  00000+0  40393-3 0  9999
2 41180  47.0006  97.3688 0001501 223.8170 136.2596 14.57753724486526
ORBCOMM FM105           
1 41181U 15081C   25036.85970565  .00000795  00000+0  27036-3 0  9992
2 41181  47.0015  88.5123 0000660  96.0747 264.0208 14.45015421481750
ORBCOMM FM110           
1 41182U 15081D   25036.89031747  .00002465  00000+0  57022-3 0  9991
2 41182  46.9999 186.2057 0002845 253.4549 106.6024 14.57801020485187
ORBCOMM FM118           
1 41183U 15081E   25036.87298192  .00002118  00000+0  49600-3 0  9997
2 41183  47.0022 186.7081 0003270 250.0959 109.9574 14.57724319485282
ORBCOMM FM112           
1 41184U 15081F   25036.87288835  .00002369  00000+0  54999-3 0  9996
2 41184  46.9981  95.3559 0000862 223.0143 137.0675 14.57753745486504
ORBCOMM FM113           
1 41185U 15081G   25036.84960132  .00002183  00000+0  50971-3 0  9991
2 41185  46.9999  95.7695 0001179 223.2517 136.8275 14.57750865486556
